{"type":"FeatureCollection","features":[{"type":"Feature","properties":{"name":"境界线","kind":"other","kind_zh":"边界线（特殊段）"},"geometry":{"type":"MultiLineString","coordinates":[[[113.822,22.229],[113.817,22.217],[113.833,22.182],[113.863,22.164]],[[113.926,22.47],[113.868,22.425],[113.87,22.361]],[[114.165,22.555],[114.041,22.501]],[[114.109,22.148],[114.307,22.148]],[[114.421,22.565],[114.435,22.561],[114.455,22.546],[114.455,22.503]],[[114.452,22.148],[114.503,22.148],[114.503,22.238]],[[114.475,22.424],[114.502,22.366],[114.502,22.364],[114.502,22.356]]]}},{"type":"Feature","properties":{"name":"境界线","kind":"other","kind_zh":"边界线（特殊段）"},"geometry":{"type":"MultiLineString","coordinates":[[[121.331,31.506],[121.333,31.507],[121.355,31.524],[121.375,31.539],[121.382,31.545],[121.365,31.559],[121.352,31.567],[121.338,31.575],[121.324,31.58],[121.314,31.586],[121.306,31.596],[121.298,31.605],[121.289,31.616],[121.281,31.626],[121.276,31.635],[121.258,31.652],[121.234,31.671],[121.199,31.695],[121.163,31.719],[121.122,31.746],[121.103,31.757],[121.095,31.763],[121.103,31.767],[121.118,31.776],[121.126,31.783],[121.139,31.793],[121.149,31.803],[121.158,31.81],[121.169,31.819],[121.18,31.827],[121.192,31.833],[121.202,31.839],[121.221,31.848],[121.236,31.854],[121.258,31.86],[121.269,31.866],[121.282,31.87],[121.29,31.872],[121.3,31.871],[121.307,31.869],[121.318,31.864],[121.329,31.86],[121.339,31.857],[121.352,31.853],[121.361,31.85],[121.367,31.848],[121.37,31.845],[121.374,31.84],[121.379,31.834],[121.381,31.83],[121.385,31.826],[121.387,31.824],[121.388,31.823],[121.389,31.821],[121.393,31.815],[121.398,31.812],[121.403,31.808],[121.407,31.803],[121.407,31.797],[121.405,31.794],[121.407,31.79],[121.411,31.784],[121.413,31.781],[121.416,31.776],[121.423,31.771],[121.432,31.768],[121.442,31.763],[121.453,31.76],[121.462,31.758],[121.473,31.756],[121.474,31.756],[121.483,31.754],[121.489,31.753],[121.496,31.752],[121.5,31.749],[121.508,31.743],[121.519,31.74],[121.527,31.739],[121.533,31.736],[121.535,31.731],[121.541,31.729],[121.547,31.728],[121.552,31.724],[121.56,31.719],[121.566,31.715],[121.575,31.71],[121.578,31.708],[121.584,31.706],[121.59,31.704],[121.598,31.704],[121.599,31.708],[121.607,31.705],[121.615,31.702],[121.618,31.699],[121.628,31.695],[121.628,31.695],[121.634,31.697],[121.64,31.698],[121.653,31.694],[121.679,31.685],[121.706,31.676],[121.727,31.67],[121.747,31.663],[121.778,31.654],[121.798,31.649],[121.82,31.643],[121.847,31.638],[121.875,31.633]]]}},{"type":"Feature","properties":{"name":"境界线","kind":"undetermined","kind_zh":"未定国界线"},"geometry":{"type":"MultiLineString","coordinates":[[[73.881,38.579],[73.891,38.581],[73.896,38.579],[73.902,38.568],[73.904,38.561],[73.904,38.56],[73.905,38.554],[73.91,38.544],[73.915,38.539],[73.923,38.536],[73.924,38.536],[73.934,38.535],[73.95,38.534],[73.965,38.533],[73.976,38.533],[73.985,38.531],[73.988,38.53],[73.998,38.524],[74.009,38.525],[74.021,38.538],[74.021,38.538],[74.031,38.542],[74.037,38.542],[74.048,38.542],[74.078,38.543],[74.079,38.543],[74.087,38.542],[74.083,38.548],[74.081,38.553],[74.079,38.56],[74.074,38.568],[74.072,38.571],[74.065,38.586],[74.076,38.598],[74.085,38.611],[74.109,38.611],[74.109,38.611],[74.115,38.615],[74.118,38.625],[74.121,38.649],[74.13,38.662],[74.133,38.668],[74.135,38.671],[74.14,38.675],[74.145,38.677],[74.156,38.674],[74.162,38.67],[74.164,38.669],[74.176,38.667],[74.186,38.664],[74.196,38.662],[74.205,38.66],[74.227,38.656],[74.235,38.656],[74.246,38.656],[74.251,38.656],[74.267,38.657],[74.289,38.655],[74.308,38.652],[74.337,38.655],[74.341,38.655],[74.345,38.655],[74.35,38.656],[74.362,38.656],[74.375,38.655],[74.382,38.653],[74.383,38.653],[74.392,38.651],[74.404,38.649],[74.419,38.648],[74.433,38.643],[74.441,38.639],[74.453,38.633],[74.46,38.632],[74.48,38.634],[74.494,38.636],[74.504,38.638],[74.512,38.636],[74.522,38.629],[74.534,38.618],[74.544,38.608],[74.557,38.607],[74.563,38.606],[74.57,38.605],[74.578,38.604],[74.595,38.599],[74.606,38.593],[74.611,38.594],[74.616,38.6],[74.624,38.603],[74.638,38.6],[74.653,38.589],[74.665,38.58],[74.678,38.571],[74.692,38.561],[74.706,38.549],[74.715,38.542],[74.727,38.537],[74.734,38.535],[74.742,38.534],[74.756,38.537],[74.763,38.537],[74.773,38.537],[74.782,38.538],[74.79,38.536],[74.794,38.532],[74.8,38.527],[74.805,38.52],[74.811,38.512],[74.813,38.503],[74.816,38.496],[74.819,38.491],[74.828,38.491],[74.836,38.491],[74.844,38.494],[74.846,38.493],[74.855,38.491],[74.86,38.484],[74.862,38.47],[74.862,38.469],[74.862,38.456],[74.862,38.444],[74.866,38.436],[74.868,38.425],[74.869,38.416],[74.869,38.413],[74.866,38.404],[74.856,38.394],[74.851,38.385],[74.846,38.378],[74.841,38.374],[74.833,38.367],[74.831,38.362],[74.821,38.364],[74.817,38.361],[74.812,38.357],[74.795,38.342],[74.788,38.333],[74.787,38.325],[74.789,38.319],[74.793,38.313],[74.796,38.307],[74.799,38.298],[74.804,38.286],[74.799,38.279],[74.79,38.271],[74.794,38.26],[74.798,38.252],[74.8,38.239],[74.81,38.224],[74.814,38.216],[74.813,38.198],[74.808,38.185],[74.802,38.167],[74.804,38.156],[74.806,38.148],[74.812,38.136],[74.816,38.124],[74.819,38.103],[74.825,38.094],[74.831,38.086],[74.839,38.077],[74.851,38.065],[74.859,38.054],[74.869,38.034],[74.873,38.029],[74.876,38.023],[74.877,38.021],[74.891,38.025],[74.9,38.028],[74.909,38.031],[74.92,38.026],[74.923,38.018],[74.922,38.004],[74.92,37.993],[74.916,37.987],[74.914,37.979],[74.91,37.973],[74.91,37.972],[74.909,37.967],[74.908,37.958],[74.91,37.949],[74.913,37.944],[74.917,37.937],[74.917,37.927],[74.917,37.916],[74.916,37.908],[74.922,37.9],[74.928,37.894],[74.934,37.884],[74.934,37.876],[74.928,37.867],[74.92,37.856],[74.917,37.85],[74.915,37.845],[74.919,37.837],[74.929,37.829],[74.944,37.82],[74.957,37.814],[74.972,37.806],[74.987,37.798],[75,37.787],[75.003,37.783],[75.005,37.776],[75.004,37.771],[74.996,37.767],[74.978,37.758],[74.971,37.752],[74.963,37.742],[74.962,37.74],[74.961,37.739],[74.955,37.734],[74.946,37.726],[74.933,37.718],[74.92,37.717],[74.919,37.707],[74.92,37.704],[74.92,37.693],[74.918,37.685],[74.907,37.68],[74.903,37.677],[74.895,37.673],[74.89,37.668],[74.89,37.661],[74.893,37.657],[74.903,37.642],[74.909,37.633],[74.909,37.632],[74.91,37.631],[74.913,37.625],[74.92,37.608],[74.925,37.59],[74.925,37.589],[74.926,37.582],[74.928,37.572],[74.938,37.559],[74.954,37.55],[74.966,37.544],[74.977,37.54],[74.998,37.531],[75.003,37.526],[74.999,37.519],[74.999,37.519],[74.999,37.512],[75.006,37.508],[75.014,37.508],[75.019,37.508],[75.024,37.509],[75.032,37.501],[75.037,37.501],[75.045,37.503],[75.051,37.506],[75.062,37.512],[75.063,37.512],[75.066,37.513],[75.07,37.512],[75.075,37.511],[75.078,37.507],[75.08,37.5],[75.088,37.487],[75.103,37.475],[75.113,37.467],[75.126,37.459],[75.134,37.446],[75.136,37.441],[75.144,37.427],[75.148,37.419],[75.15,37.414],[75.15,37.409],[75.148,37.404],[75.143,37.403],[75.133,37.397],[75.129,37.393],[75.123,37.388],[75.121,37.382],[75.126,37.373],[75.136,37.368],[75.137,37.361],[75.137,37.355],[75.131,37.35],[75.126,37.347],[75.124,37.339],[75.123,37.329],[75.123,37.325],[75.123,37.322],[75.116,37.317],[75.103,37.315],[75.091,37.317],[75.088,37.317],[75.075,37.318],[75.069,37.315],[75.061,37.311],[75.044,37.304],[75.031,37.3],[75.015,37.294],[75.006,37.292],[75.005,37.291],[75.003,37.291],[74.987,37.287],[74.972,37.285],[74.954,37.288],[74.94,37.285],[74.93,37.282],[74.924,37.278],[74.922,37.272],[74.921,37.263],[74.917,37.246],[74.913,37.239],[74.908,37.234],[74.896,37.231],[74.888,37.231],[74.879,37.231]]]}},{"type":"Feature","properties":{"name":"境界线","kind":"other","kind_zh":"边界线（特殊段）"},"geometry":{"type":"MultiLineString","coordinates":[[[121.268,30.702],[121.269,30.7],[121.273,30.698],[121.275,30.694],[121.279,30.691],[121.284,30.689],[121.293,30.688],[121.311,30.683],[121.331,30.683],[121.344,30.682],[121.369,30.681],[121.385,30.68],[121.406,30.678],[121.428,30.679],[121.442,30.68],[121.463,30.682],[121.49,30.684],[121.495,30.685],[121.513,30.685],[121.533,30.686]],[[121.573,30.691],[121.584,30.693],[121.594,30.696],[121.602,30.697],[121.609,30.699],[121.613,30.701],[121.622,30.703],[121.637,30.704],[121.65,30.706],[121.662,30.705]],[[121.79,30.72],[121.809,30.723],[121.823,30.724],[121.845,30.73],[121.868,30.738],[121.889,30.748],[121.906,30.76],[121.913,30.766]],[[122.009,30.804],[122.024,30.813],[122.041,30.82],[122.058,30.828],[122.072,30.836],[122.088,30.842],[122.105,30.847],[122.12,30.85],[122.134,30.855]],[[122.361,30.882],[122.381,30.882],[122.396,30.883],[122.411,30.883],[122.431,30.886],[122.455,30.888],[122.48,30.889],[122.501,30.892]],[[122.639,30.922],[122.668,30.926],[122.693,30.933],[122.729,30.942],[122.756,30.949],[122.783,30.956]]]}},{"type":"Feature","properties":{"name":"境界线","kind":"other","kind_zh":"边界线（特殊段）"},"geometry":{"type":"MultiLineString","coordinates":[[[109.819,20.117],[109.825,20.118],[109.836,20.118],[109.85,20.119],[109.869,20.12],[109.887,20.121],[109.903,20.122],[109.918,20.123],[109.937,20.125],[109.954,20.125],[109.976,20.127],[109.998,20.127],[110.017,20.129]],[[110.116,20.136],[110.124,20.136],[110.15,20.137],[110.178,20.14],[110.222,20.141],[110.254,20.144],[110.262,20.147],[110.283,20.156],[110.313,20.169],[110.348,20.184],[110.363,20.192]],[[110.438,20.223],[110.454,20.231],[110.5,20.251],[110.542,20.269],[110.581,20.287],[110.603,20.297]]]}},{"type":"Feature","properties":{"name":"境界线","kind":"other","kind_zh":"边界线（特殊段）"},"geometry":{"type":"MultiLineString","coordinates":[[[117.188,23.617],[117.188,23.599],[117.187,23.588],[117.191,23.576],[117.197,23.566],[117.206,23.556],[117.216,23.549],[117.216,23.549],[117.226,23.54],[117.23,23.533],[117.235,23.525],[117.239,23.521],[117.244,23.514],[117.249,23.507],[117.255,23.499],[117.26,23.492],[117.264,23.486],[117.268,23.481],[117.272,23.477],[117.274,23.473]],[[117.372,23.37],[117.381,23.361],[117.387,23.352],[117.398,23.339],[117.406,23.327],[117.412,23.319],[117.414,23.316],[117.418,23.311]]]}},{"type":"Feature","properties":{"name":"境界线","kind":"nine-dash","kind_zh":"南海断续线（九段线）"},"geometry":{"type":"MultiLineString","coordinates":[[[108.302,6.011],[108.293,6.036],[108.287,6.05],[108.28,6.072],[108.278,6.08],[108.269,6.106],[108.265,6.127],[108.261,6.142],[108.258,6.166],[108.256,6.177],[108.255,6.185],[108.252,6.202],[108.248,6.22],[108.243,6.243],[108.241,6.259],[108.239,6.268],[108.237,6.281],[108.235,6.291],[108.234,6.298],[108.231,6.312],[108.228,6.334],[108.226,6.352],[108.225,6.362],[108.223,6.376],[108.221,6.394],[108.22,6.408],[108.219,6.423],[108.217,6.44],[108.216,6.455],[108.213,6.484],[108.21,6.508],[108.208,6.522],[108.205,6.543],[108.205,6.567],[108.205,6.58],[108.205,6.602],[108.205,6.618],[108.204,6.636],[108.204,6.651],[108.203,6.673],[108.203,6.697],[108.204,6.715],[108.204,6.731],[108.205,6.744],[108.205,6.76],[108.206,6.776],[108.207,6.786],[108.207,6.801],[108.208,6.829],[108.208,6.844],[108.209,6.858],[108.209,6.876],[108.209,6.893],[108.212,6.912],[108.213,6.924],[108.215,6.938],[108.217,6.953],[108.218,6.967],[108.221,6.985],[108.223,7.004],[108.226,7.025],[108.228,7.037],[108.23,7.049],[108.234,7.074]],[[109.302,16.2],[109.308,16.189],[109.311,16.184],[109.315,16.178],[109.319,16.172],[109.328,16.158],[109.34,16.143],[109.348,16.133],[109.353,16.126],[109.364,16.113],[109.371,16.104],[109.374,16.1],[109.379,16.094],[109.385,16.085],[109.393,16.075],[109.4,16.066],[109.411,16.052],[109.415,16.046],[109.421,16.038],[109.428,16.029],[109.436,16.019],[109.447,16.005],[109.451,16],[109.458,15.992],[109.468,15.98],[109.481,15.965],[109.491,15.953],[109.504,15.939],[109.522,15.918],[109.529,15.907],[109.54,15.891],[109.547,15.88],[109.562,15.861],[109.572,15.848],[109.581,15.836],[109.593,15.816],[109.602,15.8],[109.613,15.784],[109.627,15.763],[109.635,15.749],[109.647,15.728],[109.653,15.717],[109.669,15.689],[109.683,15.662],[109.688,15.652],[109.7,15.627],[109.706,15.614],[109.716,15.594],[109.726,15.572],[109.731,15.561],[109.739,15.544],[109.747,15.523],[109.753,15.509],[109.762,15.488],[109.768,15.471],[109.777,15.447],[109.781,15.435],[109.787,15.414],[109.791,15.403],[109.797,15.378],[109.8,15.364],[109.809,15.341],[109.816,15.322],[109.821,15.303],[109.826,15.286],[109.832,15.265],[109.835,15.25],[109.841,15.223],[109.843,15.21],[109.847,15.186],[109.855,15.159]],[[110.323,12.241],[110.323,12.225],[110.322,12.212],[110.322,12.192],[110.323,12.176],[110.323,12.163],[110.324,12.153],[110.324,12.134],[110.325,12.126],[110.325,12.116],[110.324,12.103],[110.324,12.096],[110.324,12.089],[110.323,12.066],[110.323,12.05],[110.323,12.027],[110.323,12.022],[110.323,12.01],[110.321,12],[110.321,12],[110.318,11.975],[110.316,11.965],[110.314,11.924],[110.31,11.896],[110.307,11.872],[110.3,11.822],[110.293,11.787],[110.287,11.757],[110.278,11.714],[110.273,11.692],[110.269,11.679],[110.257,11.64],[110.249,11.609],[110.246,11.597],[110.236,11.574],[110.228,11.554],[110.223,11.541],[110.214,11.516],[110.201,11.495],[110.191,11.472],[110.185,11.457],[110.171,11.43],[110.156,11.403],[110.138,11.376],[110.122,11.344],[110.099,11.308],[110.086,11.283],[110.074,11.267],[110.065,11.252]],[[111.795,3.408],[111.822,3.411],[111.841,3.414],[111.861,3.416],[111.89,3.422],[111.911,3.427],[111.934,3.432],[111.96,3.437],[111.998,3.444],[112.034,3.453],[112.061,3.46],[112.082,3.466],[112.118,3.476],[112.16,3.486],[112.199,3.496],[112.222,3.501],[112.265,3.513],[112.293,3.52],[112.317,3.527],[112.355,3.538],[112.39,3.549],[112.409,3.555],[112.433,3.564],[112.466,3.575],[112.492,3.585],[112.51,3.591],[112.546,3.605],[112.587,3.621],[112.632,3.639],[112.664,3.653],[112.681,3.661],[112.706,3.674],[112.722,3.682],[112.768,3.703],[112.791,3.714],[112.803,3.72],[112.817,3.727],[112.849,3.745]],[[115.544,7.158],[115.611,7.237],[115.625,7.254],[115.643,7.275],[115.667,7.303],[115.685,7.324],[115.707,7.35],[115.729,7.377],[115.749,7.4],[115.761,7.414],[115.785,7.443],[115.797,7.457],[115.807,7.469],[115.82,7.484],[115.835,7.502],[115.851,7.521],[115.865,7.537],[115.881,7.556],[115.896,7.574],[115.907,7.587],[115.923,7.606],[115.937,7.622],[115.957,7.645],[115.973,7.665],[115.982,7.676],[116.002,7.699],[116.014,7.713],[116.032,7.734],[116.053,7.759],[116.077,7.788],[116.106,7.822],[116.129,7.849],[116.156,7.88],[116.178,7.907],[116.203,7.936],[116.235,7.974],[116.242,7.982]],[[118.539,10.907],[118.553,10.931],[118.566,10.954],[118.588,10.99],[118.609,11.031],[118.618,11.046],[118.629,11.062],[118.635,11.077],[118.645,11.101],[118.665,11.139],[118.674,11.158],[118.688,11.184],[118.702,11.217],[118.712,11.238],[118.721,11.259],[118.73,11.279],[118.74,11.298],[118.748,11.315],[118.76,11.34],[118.773,11.367],[118.794,11.414],[118.809,11.457],[118.818,11.483],[118.824,11.499],[118.83,11.516],[118.846,11.552],[118.854,11.576],[118.864,11.602],[118.87,11.62],[118.882,11.649],[118.888,11.669],[118.897,11.696],[118.903,11.713],[118.913,11.746],[118.922,11.769],[118.929,11.8],[118.936,11.822],[118.947,11.854],[118.952,11.878],[118.956,11.895],[118.963,11.92],[118.967,11.938],[118.974,11.962],[118.978,11.98]],[[119.061,16.029],[119.061,16],[119.061,15.989],[119.061,15.98],[119.061,15.974],[119.061,15.967],[119.061,15.96],[119.061,15.951],[119.061,15.941],[119.061,15.935],[119.061,15.926],[119.061,15.919],[119.061,15.912],[119.061,15.905],[119.061,15.897],[119.061,15.889],[119.061,15.882],[119.061,15.876],[119.061,15.868],[119.061,15.862],[119.061,15.855],[119.061,15.848],[119.061,15.842],[119.061,15.834],[119.061,15.825],[119.061,15.817],[119.061,15.81],[119.061,15.803],[119.061,15.792],[119.061,15.784],[119.061,15.779],[119.061,15.77],[119.061,15.762],[119.061,15.751],[119.061,15.742],[119.061,15.732],[119.061,15.725],[119.061,15.713],[119.061,15.706],[119.061,15.697],[119.061,15.688],[119.061,15.677],[119.061,15.666],[119.06,15.655],[119.06,15.644],[119.06,15.633],[119.06,15.624],[119.06,15.616],[119.06,15.608],[119.06,15.6],[119.06,15.591],[119.06,15.582],[119.06,15.573],[119.06,15.563],[119.06,15.555],[119.06,15.546],[119.06,15.537],[119.06,15.529],[119.06,15.518],[119.06,15.509],[119.06,15.492],[119.06,15.483],[119.06,15.475],[119.06,15.462],[119.06,15.454],[119.06,15.444],[119.06,15.437],[119.06,15.424],[119.06,15.414],[119.06,15.402],[119.06,15.391],[119.06,15.38],[119.06,15.368],[119.06,15.355],[119.06,15.343],[119.06,15.33],[119.06,15.32],[119.06,15.31],[119.06,15.301],[119.06,15.29],[119.06,15.272],[119.06,15.26],[119.06,15.246],[119.06,15.233],[119.06,15.218],[119.059,15.196],[119.059,15.18],[119.059,15.162],[119.059,15.149],[119.059,15.136],[119.059,15.121],[119.059,15.104],[119.059,15.088],[119.059,15.07],[119.059,15.055],[119.059,15.009]],[[119.999,18.99],[119.995,18.985],[119.984,18.965],[119.966,18.936],[119.947,18.905],[119.913,18.852],[119.869,18.783],[119.835,18.724],[119.81,18.681],[119.79,18.648],[119.77,18.613],[119.76,18.596],[119.748,18.575],[119.735,18.554],[119.716,18.521],[119.694,18.483],[119.685,18.466],[119.646,18.399],[119.631,18.368],[119.619,18.344],[119.609,18.324],[119.581,18.268],[119.563,18.226],[119.553,18.201],[119.529,18.142],[119.509,18.097],[119.498,18.073],[119.49,18.053],[119.473,18.016]],[[121.912,21.698],[121.905,21.69],[121.884,21.665],[121.853,21.628],[121.833,21.605],[121.81,21.577],[121.802,21.568],[121.796,21.561],[121.784,21.547],[121.772,21.532],[121.761,21.52],[121.75,21.507],[121.741,21.496],[121.728,21.481],[121.719,21.47],[121.71,21.459],[121.696,21.442],[121.687,21.432],[121.678,21.421],[121.67,21.412],[121.661,21.402],[121.654,21.393],[121.648,21.387],[121.64,21.376],[121.627,21.362],[121.619,21.351],[121.612,21.344],[121.604,21.334],[121.598,21.327],[121.591,21.319],[121.584,21.31],[121.578,21.303],[121.573,21.297],[121.561,21.283],[121.556,21.278],[121.55,21.271],[121.543,21.262],[121.537,21.255],[121.53,21.247],[121.526,21.242],[121.517,21.232],[121.512,21.225],[121.506,21.218],[121.501,21.213],[121.494,21.204],[121.487,21.196],[121.48,21.188],[121.473,21.179],[121.467,21.173],[121.461,21.166],[121.456,21.16],[121.448,21.15],[121.442,21.143],[121.435,21.135],[121.43,21.128],[121.422,21.119],[121.417,21.114],[121.413,21.109],[121.406,21.101],[121.4,21.093],[121.394,21.086],[121.388,21.079],[121.381,21.071],[121.374,21.062],[121.365,21.052],[121.357,21.042],[121.349,21.033],[121.341,21.024],[121.337,21.019],[121.332,21.013],[121.327,21.007],[121.322,21.001],[121.315,20.993],[121.31,20.987],[121.305,20.981],[121.301,20.976],[121.296,20.97],[121.29,20.963],[121.284,20.956],[121.278,20.949],[121.27,20.94],[121.263,20.932],[121.258,20.925],[121.251,20.917],[121.246,20.912],[121.241,20.905],[121.232,20.895],[121.226,20.888],[121.221,20.882],[121.214,20.874],[121.209,20.868],[121.204,20.862],[121.201,20.858],[121.198,20.854],[121.194,20.85],[121.189,20.844],[121.186,20.841],[121.183,20.837],[121.178,20.831],[121.174,20.827]],[[122.817,24.658],[122.66,23.669]]]}},{"type":"Feature","properties":{"name":"境界线","kind":"other","kind_zh":"边界线（特殊段）"},"geometry":{"type":"MultiLineString","coordinates":[[[120.506,27.089],[120.465,27.134],[120.458,27.143],[120.435,27.171],[120.432,27.174],[120.429,27.179],[120.425,27.183],[120.422,27.187],[120.418,27.191],[120.414,27.195],[120.409,27.2],[120.407,27.203],[120.406,27.206],[120.407,27.208],[120.407,27.21],[120.408,27.213],[120.409,27.215],[120.41,27.22],[120.411,27.222],[120.411,27.224],[120.411,27.227],[120.409,27.23],[120.408,27.231],[120.406,27.235],[120.403,27.237],[120.401,27.242],[120.4,27.245],[120.4,27.249],[120.4,27.251],[120.402,27.253],[120.404,27.254],[120.407,27.254],[120.41,27.255],[120.413,27.255],[120.417,27.255],[120.42,27.256],[120.422,27.257],[120.423,27.26],[120.422,27.262],[120.421,27.266],[120.42,27.268],[120.417,27.27],[120.413,27.273],[120.41,27.275],[120.407,27.278]]]}}]}