{"type":"FeatureCollection","features":[{"type":"Feature","properties":{"name":"南海诸岛","name_zh":"南海诸岛"},"geometry":{"type":"MultiPolygon","coordinates":[[[[122.519,23.461],[122.799,24.574],[122.799,24.577],[122.798,24.58],[122.797,24.583],[122.794,24.585],[122.791,24.586],[122.788,24.586],[122.785,24.585],[122.783,24.584],[122.78,24.581],[122.779,24.579],[122.499,23.466],[122.499,23.463],[122.5,23.459],[122.501,23.457],[122.504,23.455],[122.507,23.454],[122.51,23.453],[122.513,23.454],[122.515,23.456],[122.517,23.458],[122.519,23.461]]],[[[121.172,20.805],[121.909,21.687],[121.911,21.69],[121.912,21.693],[121.911,21.696],[121.91,21.699],[121.908,21.702],[121.905,21.703],[121.902,21.704],[121.899,21.704],[121.896,21.702],[121.894,21.7],[121.157,20.818],[121.155,20.816],[121.154,20.813],[121.155,20.809],[121.156,20.807],[121.158,20.804],[121.161,20.803],[121.164,20.802],[121.167,20.802],[121.17,20.803],[121.172,20.805]]],[[[119.474,18.007],[120.026,19.024],[120.027,19.027],[120.027,19.03],[120.026,19.033],[120.024,19.036],[120.022,19.038],[120.019,19.039],[120.016,19.039],[120.013,19.038],[120.01,19.036],[120.008,19.034],[119.456,18.017],[119.455,18.014],[119.455,18.011],[119.456,18.008],[119.458,18.005],[119.46,18.003],[119.463,18.002],[119.466,18.002],[119.469,18.003],[119.472,18.005],[119.474,18.007]]],[[[119.073,15.041],[119.073,16.044],[119.072,16.047],[119.071,16.05],[119.069,16.052],[119.066,16.053],[119.063,16.054],[119.06,16.053],[119.057,16.052],[119.055,16.05],[119.053,16.047],[119.053,16.044],[119.053,15.041],[119.052,15.008],[119.053,15.005],[119.054,15.002],[119.056,15],[119.059,14.998],[119.062,14.998],[119.065,14.998],[119.068,14.999],[119.07,15.002],[119.072,15.004],[119.072,15.008],[119.073,15.041],[119.073,15.041]]],[[[118.686,11.19],[118.525,10.915],[118.524,10.913],[118.524,10.909],[118.525,10.906],[118.526,10.904],[118.529,10.902],[118.532,10.901],[118.535,10.9],[118.538,10.901],[118.54,10.903],[118.542,10.905],[118.704,11.18],[118.705,11.181],[118.874,11.607],[118.875,11.607],[118.989,11.986],[118.989,11.989],[118.989,11.992],[118.987,11.995],[118.985,11.997],[118.982,11.998],[118.979,11.999],[118.976,11.998],[118.973,11.997],[118.971,11.994],[118.97,11.992],[118.856,11.614],[118.686,11.19]]],[[[115.545,7.147],[116.25,7.979],[116.252,7.982],[116.253,7.985],[116.253,7.988],[116.251,7.991],[116.249,7.993],[116.247,7.995],[116.244,7.996],[116.24,7.995],[116.238,7.994],[116.235,7.992],[115.529,7.16],[115.528,7.157],[115.527,7.154],[115.527,7.151],[115.529,7.148],[115.531,7.146],[115.533,7.144],[115.536,7.143],[115.539,7.143],[115.542,7.145],[115.545,7.147]]],[[[112.307,3.535],[111.787,3.417],[111.784,3.416],[111.782,3.414],[111.78,3.411],[111.779,3.408],[111.779,3.405],[111.781,3.402],[111.783,3.4],[111.785,3.398],[111.788,3.397],[111.791,3.397],[112.312,3.515],[112.312,3.516],[112.521,3.579],[112.523,3.579],[112.852,3.733],[112.855,3.734],[112.857,3.737],[112.858,3.74],[112.858,3.743],[112.857,3.746],[112.855,3.748],[112.853,3.75],[112.85,3.751],[112.847,3.752],[112.844,3.751],[112.515,3.598],[112.307,3.535]]],[[[108.261,6.089],[108.29,6.013],[108.292,6.01],[108.294,6.008],[108.297,6.007],[108.3,6.006],[108.303,6.007],[108.306,6.009],[108.308,6.011],[108.309,6.014],[108.309,6.017],[108.309,6.02],[108.28,6.095],[108.256,6.228],[108.217,6.538],[108.219,6.95],[108.244,7.074],[108.244,7.077],[108.244,7.08],[108.242,7.083],[108.239,7.085],[108.236,7.086],[108.233,7.086],[108.23,7.085],[108.228,7.083],[108.226,7.081],[108.225,7.078],[108.199,6.953],[108.199,6.951],[108.197,6.538],[108.197,6.536],[108.236,6.225],[108.236,6.224],[108.26,6.091],[108.261,6.089]]],[[[110.128,11.369],[110.056,11.253],[110.054,11.25],[110.054,11.247],[110.055,11.244],[110.056,11.242],[110.059,11.24],[110.062,11.238],[110.065,11.238],[110.068,11.239],[110.07,11.24],[110.072,11.243],[110.145,11.359],[110.146,11.36],[110.207,11.481],[110.207,11.482],[110.259,11.604],[110.259,11.605],[110.304,11.783],[110.305,11.784],[110.328,11.946],[110.328,11.947],[110.334,12.142],[110.334,12.142],[110.332,12.24],[110.332,12.243],[110.33,12.246],[110.328,12.248],[110.325,12.25],[110.322,12.25],[110.319,12.25],[110.316,12.248],[110.314,12.246],[110.313,12.243],[110.312,12.24],[110.314,12.142],[110.308,11.948],[110.285,11.787],[110.24,11.611],[110.189,11.49],[110.128,11.369]]],[[[109.83,15.229],[109.845,15.153],[109.846,15.15],[109.848,15.148],[109.851,15.146],[109.854,15.145],[109.857,15.145],[109.86,15.147],[109.862,15.148],[109.864,15.151],[109.865,15.154],[109.865,15.157],[109.849,15.233],[109.849,15.234],[109.79,15.451],[109.789,15.452],[109.691,15.674],[109.69,15.675],[109.591,15.837],[109.591,15.837],[109.532,15.923],[109.532,15.923],[109.309,16.207],[109.307,16.209],[109.304,16.211],[109.301,16.211],[109.298,16.21],[109.295,16.209],[109.293,16.207],[109.291,16.204],[109.291,16.201],[109.292,16.198],[109.293,16.195],[109.516,15.911],[109.575,15.826],[109.673,15.666],[109.771,15.445],[109.83,15.229]]]]}}]}