{"type":"FeatureCollection","features":[{"type":"Feature","properties":{"name":"Vatican City","featurecla":"Admin-0 capital","pop_max":832,"megacity":0,"adm0name":"Vatican","worldcity":1},"geometry":{"type":"Point","coordinates":[12.453,41.903]}},{"type":"Feature","properties":{"name":"San Marino","featurecla":"Admin-0 capital","pop_max":29579,"megacity":0,"adm0name":"San Marino","worldcity":0},"geometry":{"type":"Point","coordinates":[12.442,43.936]}},{"type":"Feature","properties":{"name":"Vaduz","featurecla":"Admin-0 capital","pop_max":36281,"megacity":0,"adm0name":"Liechtenstein","worldcity":0},"geometry":{"type":"Point","coordinates":[9.517,47.134]}},{"type":"Feature","properties":{"name":"Lobamba","featurecla":"Admin-0 capital alt","pop_max":9782,"megacity":0,"adm0name":"eSwatini","worldcity":0},"geometry":{"type":"Point","coordinates":[31.2,-26.467]}},{"type":"Feature","properties":{"name":"Luxembourg","featurecla":"Admin-0 capital","pop_max":107260,"megacity":0,"adm0name":"Luxembourg","worldcity":0},"geometry":{"type":"Point","coordinates":[6.13,49.612]}},{"type":"Feature","properties":{"name":"Palikir","featurecla":"Admin-0 capital","pop_max":4645,"megacity":0,"adm0name":"Federated States of Micronesia","worldcity":0},"geometry":{"type":"Point","coordinates":[158.15,6.917]}},{"type":"Feature","properties":{"name":"Majuro","featurecla":"Admin-0 capital","pop_max":25400,"megacity":0,"adm0name":"Marshall Islands","worldcity":0},"geometry":{"type":"Point","coordinates":[171.38,7.103]}},{"type":"Feature","properties":{"name":"Funafuti","featurecla":"Admin-0 capital","pop_max":4749,"megacity":0,"adm0name":"Tuvalu","worldcity":0},"geometry":{"type":"Point","coordinates":[179.217,-8.517]}},{"type":"Feature","properties":{"name":"Melekeok","featurecla":"Admin-0 capital","pop_max":7026,"megacity":0,"adm0name":"Palau","worldcity":0},"geometry":{"type":"Point","coordinates":[134.627,7.487]}},{"type":"Feature","properties":{"name":"Bir Lehlou","featurecla":"Admin-0 capital alt","pop_max":500,"megacity":0,"adm0name":"Western Sahara","worldcity":0},"geometry":{"type":"Point","coordinates":[-9.653,26.119]}},{"type":"Feature","properties":{"name":"Monaco","featurecla":"Admin-0 capital","pop_max":36371,"megacity":0,"adm0name":"Monaco","worldcity":0},"geometry":{"type":"Point","coordinates":[7.407,43.74]}},{"type":"Feature","properties":{"name":"Tarawa","featurecla":"Admin-0 capital","pop_max":28802,"megacity":0,"adm0name":"Kiribati","worldcity":0},"geometry":{"type":"Point","coordinates":[173.018,1.338]}},{"type":"Feature","properties":{"name":"Moroni","featurecla":"Admin-0 capital","pop_max":128698,"megacity":0,"adm0name":"Comoros","worldcity":0},"geometry":{"type":"Point","coordinates":[43.24,-11.704]}},{"type":"Feature","properties":{"name":"Andorra","featurecla":"Admin-0 capital","pop_max":53998,"megacity":0,"adm0name":"Andorra","worldcity":0},"geometry":{"type":"Point","coordinates":[1.527,42.511]}},{"type":"Feature","properties":{"name":"Port-of-Spain","featurecla":"Admin-0 capital","pop_max":294934,"megacity":0,"adm0name":"Trinidad and Tobago","worldcity":0},"geometry":{"type":"Point","coordinates":[-61.517,10.652]}},{"type":"Feature","properties":{"name":"Kigali","featurecla":"Admin-0 capital","pop_max":860000,"megacity":1,"adm0name":"Rwanda","worldcity":0},"geometry":{"type":"Point","coordinates":[30.059,-1.952]}},{"type":"Feature","properties":{"name":"Mbabane","featurecla":"Admin-0 capital","pop_max":90138,"megacity":0,"adm0name":"eSwatini","worldcity":0},"geometry":{"type":"Point","coordinates":[31.133,-26.317]}},{"type":"Feature","properties":{"name":"Juba","featurecla":"Admin-0 capital","pop_max":111975,"megacity":0,"adm0name":"South Sudan","worldcity":0},"geometry":{"type":"Point","coordinates":[31.58,4.83]}},{"type":"Feature","properties":{"name":"The Hague","featurecla":"Admin-0 capital alt","pop_max":1406000,"megacity":0,"adm0name":"Netherlands","worldcity":0},"geometry":{"type":"Point","coordinates":[4.27,52.08]}},{"type":"Feature","properties":{"name":"Ljubljana","featurecla":"Admin-0 capital","pop_max":314807,"megacity":0,"adm0name":"Slovenia","worldcity":0},"geometry":{"type":"Point","coordinates":[14.515,46.055]}},{"type":"Feature","properties":{"name":"Bratislava","featurecla":"Admin-0 capital","pop_max":423737,"megacity":0,"adm0name":"Slovakia","worldcity":0},"geometry":{"type":"Point","coordinates":[17.117,48.15]}},{"type":"Feature","properties":{"name":"Doha","featurecla":"Admin-0 capital","pop_max":1450000,"megacity":0,"adm0name":"Qatar","worldcity":0},"geometry":{"type":"Point","coordinates":[51.533,25.287]}},{"type":"Feature","properties":{"name":"Podgorica","featurecla":"Admin-0 capital","pop_max":145850,"megacity":0,"adm0name":"Montenegro","worldcity":0},"geometry":{"type":"Point","coordinates":[19.266,42.466]}},{"type":"Feature","properties":{"name":"Sri Jayawardenepura Kotte","featurecla":"Admin-0 capital alt","pop_max":115826,"megacity":0,"adm0name":"Sri Lanka","worldcity":0},"geometry":{"type":"Point","coordinates":[79.95,6.9]}},{"type":"Feature","properties":{"name":"Baguio","featurecla":"Admin-0 capital alt","pop_max":447824,"megacity":0,"adm0name":"Philippines","worldcity":0},"geometry":{"type":"Point","coordinates":[120.57,16.43]}},{"type":"Feature","properties":{"name":"Dodoma","featurecla":"Admin-0 capital alt","pop_max":218269,"megacity":0,"adm0name":"Tanzania","worldcity":0},"geometry":{"type":"Point","coordinates":[35.75,-6.183]}},{"type":"Feature","properties":{"name":"Bern","featurecla":"Admin-0 capital","pop_max":275329,"megacity":0,"adm0name":"Switzerland","worldcity":0},"geometry":{"type":"Point","coordinates":[7.467,46.917]}},{"type":"Feature","properties":{"name":"Laayoune","featurecla":"Admin-0 capital alt","pop_max":188084,"megacity":0,"adm0name":"Morocco","worldcity":0},"geometry":{"type":"Point","coordinates":[-13.2,27.15]}},{"type":"Feature","properties":{"name":"Pristina","featurecla":"Admin-0 capital","pop_max":465186,"megacity":0,"adm0name":"Kosovo","worldcity":0},"geometry":{"type":"Point","coordinates":[21.166,42.667]}},{"type":"Feature","properties":{"name":"Roseau","featurecla":"Admin-0 capital","pop_max":23336,"megacity":0,"adm0name":"Dominica","worldcity":0},"geometry":{"type":"Point","coordinates":[-61.387,15.301]}},{"type":"Feature","properties":{"name":"Djibouti","featurecla":"Admin-0 capital","pop_max":923000,"megacity":0,"adm0name":"Djibouti","worldcity":0},"geometry":{"type":"Point","coordinates":[43.148,11.595]}},{"type":"Feature","properties":{"name":"Putrajaya","featurecla":"Admin-0 capital alt","pop_max":67964,"megacity":0,"adm0name":"Malaysia","worldcity":0},"geometry":{"type":"Point","coordinates":[101.695,2.933]}},{"type":"Feature","properties":{"name":"Kyoto","featurecla":"Admin-0 capital alt","pop_max":1805000,"megacity":1,"adm0name":"Japan","worldcity":0},"geometry":{"type":"Point","coordinates":[135.748,35.032]}},{"type":"Feature","properties":{"name":"Banjul","featurecla":"Admin-0 capital","pop_max":43094,"megacity":0,"adm0name":"The Gambia","worldcity":0},"geometry":{"type":"Point","coordinates":[-16.592,13.454]}},{"type":"Feature","properties":{"name":"Skopje","featurecla":"Admin-0 capital","pop_max":494087,"megacity":0,"adm0name":"North Macedonia","worldcity":0},"geometry":{"type":"Point","coordinates":[21.433,42]}},{"type":"Feature","properties":{"name":"Bridgetown","featurecla":"Admin-0 capital","pop_max":191152,"megacity":0,"adm0name":"Barbados","worldcity":0},"geometry":{"type":"Point","coordinates":[-59.617,13.102]}},{"type":"Feature","properties":{"name":"Porto-Novo","featurecla":"Admin-0 capital alt","pop_max":300000,"megacity":0,"adm0name":"Benin","worldcity":0},"geometry":{"type":"Point","coordinates":[2.617,6.483]}},{"type":"Feature","properties":{"name":"Bujumbura","featurecla":"Admin-0 capital","pop_max":331700,"megacity":0,"adm0name":"Burundi","worldcity":0},"geometry":{"type":"Point","coordinates":[29.36,-3.376]}},{"type":"Feature","properties":{"name":"Kingstown","featurecla":"Admin-0 capital","pop_max":49485,"megacity":0,"adm0name":"Saint Vincent and the Grenadines","worldcity":0},"geometry":{"type":"Point","coordinates":[-61.22,13.156]}},{"type":"Feature","properties":{"name":"Castries","featurecla":"Admin-0 capital","pop_max":37963,"megacity":0,"adm0name":"Saint Lucia","worldcity":0},"geometry":{"type":"Point","coordinates":[-60.993,14.008]}},{"type":"Feature","properties":{"name":"Basseterre","featurecla":"Admin-0 capital","pop_max":21887,"megacity":0,"adm0name":"Saint Kitts and Nevis","worldcity":0},"geometry":{"type":"Point","coordinates":[-62.717,17.302]}},{"type":"Feature","properties":{"name":"Port Louis","featurecla":"Admin-0 capital","pop_max":595491,"megacity":0,"adm0name":"Mauritius","worldcity":0},"geometry":{"type":"Point","coordinates":[57.5,-20.167]}},{"type":"Feature","properties":{"name":"Saint George's","featurecla":"Admin-0 capital","pop_max":33734,"megacity":0,"adm0name":"Grenada","worldcity":0},"geometry":{"type":"Point","coordinates":[-61.742,12.053]}},{"type":"Feature","properties":{"name":"Manama","featurecla":"Admin-0 capital","pop_max":563920,"megacity":0,"adm0name":"Bahrain","worldcity":0},"geometry":{"type":"Point","coordinates":[50.583,26.236]}},{"type":"Feature","properties":{"name":"Saint John's","featurecla":"Admin-0 capital","pop_max":35499,"megacity":0,"adm0name":"Antigua and Barbuda","worldcity":0},"geometry":{"type":"Point","coordinates":[-61.85,17.118]}},{"type":"Feature","properties":{"name":"Montevideo","featurecla":"Admin-0 capital","pop_max":1513000,"megacity":1,"adm0name":"Uruguay","worldcity":0},"geometry":{"type":"Point","coordinates":[-56.187,-34.905]}},{"type":"Feature","properties":{"name":"Lomé","featurecla":"Admin-0 capital","pop_max":1452000,"megacity":1,"adm0name":"Togo","worldcity":0},"geometry":{"type":"Point","coordinates":[1.221,6.134]}},{"type":"Feature","properties":{"name":"Tunis","featurecla":"Admin-0 capital","pop_max":2412500,"megacity":0,"adm0name":"Tunisia","worldcity":0},"geometry":{"type":"Point","coordinates":[10.18,36.803]}},{"type":"Feature","properties":{"name":"Abu Dhabi","featurecla":"Admin-0 capital","pop_max":603492,"megacity":0,"adm0name":"United Arab Emirates","worldcity":0},"geometry":{"type":"Point","coordinates":[54.367,24.467]}},{"type":"Feature","properties":{"name":"Ashgabat","featurecla":"Admin-0 capital","pop_max":727700,"megacity":0,"adm0name":"Turkmenistan","worldcity":0},"geometry":{"type":"Point","coordinates":[58.383,37.95]}},{"type":"Feature","properties":{"name":"Lusaka","featurecla":"Admin-0 capital","pop_max":1328000,"megacity":1,"adm0name":"Zambia","worldcity":0},"geometry":{"type":"Point","coordinates":[28.281,-15.415]}},{"type":"Feature","properties":{"name":"Harare","featurecla":"Admin-0 capital","pop_max":1572000,"megacity":1,"adm0name":"Zimbabwe","worldcity":0},"geometry":{"type":"Point","coordinates":[31.043,-17.816]}},{"type":"Feature","properties":{"name":"Dili","featurecla":"Admin-0 capital","pop_max":234331,"megacity":0,"adm0name":"East Timor","worldcity":0},"geometry":{"type":"Point","coordinates":[125.579,-8.559]}},{"type":"Feature","properties":{"name":"Port Vila","featurecla":"Admin-0 capital","pop_max":44040,"megacity":0,"adm0name":"Vanuatu","worldcity":0},"geometry":{"type":"Point","coordinates":[168.317,-17.733]}},{"type":"Feature","properties":{"name":"Tegucigalpa","featurecla":"Admin-0 capital","pop_max":946000,"megacity":1,"adm0name":"Honduras","worldcity":0},"geometry":{"type":"Point","coordinates":[-87.219,14.104]}},{"type":"Feature","properties":{"name":"Georgetown","featurecla":"Admin-0 capital","pop_max":264350,"megacity":0,"adm0name":"Guyana","worldcity":0},"geometry":{"type":"Point","coordinates":[-58.167,6.802]}},{"type":"Feature","properties":{"name":"Reykjavík","featurecla":"Admin-0 capital","pop_max":166212,"megacity":0,"adm0name":"Iceland","worldcity":0},"geometry":{"type":"Point","coordinates":[-21.937,64.143]}},{"type":"Feature","properties":{"name":"Port-au-Prince","featurecla":"Admin-0 capital","pop_max":1998000,"megacity":1,"adm0name":"Haiti","worldcity":0},"geometry":{"type":"Point","coordinates":[-72.338,18.543]}},{"type":"Feature","properties":{"name":"Kampala","featurecla":"Admin-0 capital","pop_max":1420000,"megacity":1,"adm0name":"Uganda","worldcity":0},"geometry":{"type":"Point","coordinates":[32.581,0.319]}},{"type":"Feature","properties":{"name":"Paramaribo","featurecla":"Admin-0 capital","pop_max":254169,"megacity":0,"adm0name":"Suriname","worldcity":0},"geometry":{"type":"Point","coordinates":[-55.167,5.835]}},{"type":"Feature","properties":{"name":"Niamey","featurecla":"Admin-0 capital","pop_max":915000,"megacity":1,"adm0name":"Niger","worldcity":0},"geometry":{"type":"Point","coordinates":[2.115,13.519]}},{"type":"Feature","properties":{"name":"Dushanbe","featurecla":"Admin-0 capital","pop_max":1086244,"megacity":0,"adm0name":"Tajikistan","worldcity":0},"geometry":{"type":"Point","coordinates":[68.774,38.56]}},{"type":"Feature","properties":{"name":"Asunción","featurecla":"Admin-0 capital","pop_max":1870000,"megacity":1,"adm0name":"Paraguay","worldcity":0},"geometry":{"type":"Point","coordinates":[-57.626,-25.291]}},{"type":"Feature","properties":{"name":"Managua","featurecla":"Admin-0 capital","pop_max":920000,"megacity":1,"adm0name":"Nicaragua","worldcity":0},"geometry":{"type":"Point","coordinates":[-86.27,12.155]}},{"type":"Feature","properties":{"name":"Freetown","featurecla":"Admin-0 capital","pop_max":827000,"megacity":1,"adm0name":"Sierra Leone","worldcity":0},"geometry":{"type":"Point","coordinates":[-13.236,8.472]}},{"type":"Feature","properties":{"name":"Islamabad","featurecla":"Admin-0 capital","pop_max":780000,"megacity":1,"adm0name":"Pakistan","worldcity":0},"geometry":{"type":"Point","coordinates":[73.081,33.689]}},{"type":"Feature","properties":{"name":"Kathmandu","featurecla":"Admin-0 capital","pop_max":895000,"megacity":1,"adm0name":"Nepal","worldcity":0},"geometry":{"type":"Point","coordinates":[85.315,27.719]}},{"type":"Feature","properties":{"name":"Bloemfontein","featurecla":"Admin-0 capital","pop_max":463064,"megacity":0,"adm0name":"South Africa","worldcity":0},"geometry":{"type":"Point","coordinates":[26.23,-29.12]}},{"type":"Feature","properties":{"name":"Pretoria","featurecla":"Admin-0 capital","pop_max":1338000,"megacity":1,"adm0name":"South Africa","worldcity":0},"geometry":{"type":"Point","coordinates":[28.227,-25.705]}},{"type":"Feature","properties":{"name":"Port Moresby","featurecla":"Admin-0 capital","pop_max":283733,"megacity":0,"adm0name":"Papua New Guinea","worldcity":0},"geometry":{"type":"Point","coordinates":[147.193,-9.465]}},{"type":"Feature","properties":{"name":"Honiara","featurecla":"Admin-0 capital","pop_max":76328,"megacity":0,"adm0name":"Solomon Islands","worldcity":0},"geometry":{"type":"Point","coordinates":[159.95,-9.438]}},{"type":"Feature","properties":{"name":"Panama City","featurecla":"Admin-0 capital","pop_max":1281000,"megacity":1,"adm0name":"Panama","worldcity":0},"geometry":{"type":"Point","coordinates":[-79.535,8.97]}},{"type":"Feature","properties":{"name":"Rabat","featurecla":"Admin-0 capital","pop_max":1705000,"megacity":1,"adm0name":"Morocco","worldcity":0},"geometry":{"type":"Point","coordinates":[-6.836,34.025]}},{"type":"Feature","properties":{"name":"Chișinău","featurecla":"Admin-0 capital","pop_max":688134,"megacity":0,"adm0name":"Moldova","worldcity":0},"geometry":{"type":"Point","coordinates":[28.858,47.005]}},{"type":"Feature","properties":{"name":"Maputo","featurecla":"Admin-0 capital","pop_max":1446000,"megacity":1,"adm0name":"Mozambique","worldcity":0},"geometry":{"type":"Point","coordinates":[32.587,-25.953]}},{"type":"Feature","properties":{"name":"Mogadishu","featurecla":"Admin-0 capital","pop_max":1100000,"megacity":1,"adm0name":"Somalia","worldcity":0},"geometry":{"type":"Point","coordinates":[45.365,2.069]}},{"type":"Feature","properties":{"name":"Muscat","featurecla":"Admin-0 capital","pop_max":734697,"megacity":0,"adm0name":"Oman","worldcity":0},"geometry":{"type":"Point","coordinates":[58.378,23.585]}},{"type":"Feature","properties":{"name":"Colombo","featurecla":"Admin-0 capital","pop_max":217000,"megacity":0,"adm0name":"Sri Lanka","worldcity":0},"geometry":{"type":"Point","coordinates":[79.858,6.932]}},{"type":"Feature","properties":{"name":"Ulaanbaatar","featurecla":"Admin-0 capital","pop_max":885000,"megacity":1,"adm0name":"Mongolia","worldcity":0},"geometry":{"type":"Point","coordinates":[106.915,47.919]}},{"type":"Feature","properties":{"name":"Windhoek","featurecla":"Admin-0 capital","pop_max":268132,"megacity":0,"adm0name":"Namibia","worldcity":0},"geometry":{"type":"Point","coordinates":[17.084,-22.57]}},{"type":"Feature","properties":{"name":"Abuja","featurecla":"Admin-0 capital","pop_max":1576000,"megacity":1,"adm0name":"Nigeria","worldcity":0},"geometry":{"type":"Point","coordinates":[7.49,9.055]}},{"type":"Feature","properties":{"name":"Bissau","featurecla":"Admin-0 capital","pop_max":403339,"megacity":0,"adm0name":"Guinea Bissau","worldcity":0},"geometry":{"type":"Point","coordinates":[-15.598,11.865]}},{"type":"Feature","properties":{"name":"Amman","featurecla":"Admin-0 capital","pop_max":1060000,"megacity":1,"adm0name":"Jordan","worldcity":0},"geometry":{"type":"Point","coordinates":[35.931,31.952]}},{"type":"Feature","properties":{"name":"Vilnius","featurecla":"Admin-0 capital","pop_max":542366,"megacity":0,"adm0name":"Lithuania","worldcity":0},"geometry":{"type":"Point","coordinates":[25.317,54.683]}},{"type":"Feature","properties":{"name":"Riga","featurecla":"Admin-0 capital","pop_max":742572,"megacity":0,"adm0name":"Latvia","worldcity":0},"geometry":{"type":"Point","coordinates":[24.1,56.95]}},{"type":"Feature","properties":{"name":"Bishkek","featurecla":"Admin-0 capital","pop_max":837000,"megacity":1,"adm0name":"Kyrgyzstan","worldcity":0},"geometry":{"type":"Point","coordinates":[74.583,42.875]}},{"type":"Feature","properties":{"name":"Maseru","featurecla":"Admin-0 capital","pop_max":361324,"megacity":0,"adm0name":"Lesotho","worldcity":0},"geometry":{"type":"Point","coordinates":[27.483,-29.317]}},{"type":"Feature","properties":{"name":"Antananarivo","featurecla":"Admin-0 capital","pop_max":1697000,"megacity":1,"adm0name":"Madagascar","worldcity":0},"geometry":{"type":"Point","coordinates":[47.515,-18.915]}},{"type":"Feature","properties":{"name":"Quito","featurecla":"Admin-0 capital","pop_max":1701000,"megacity":1,"adm0name":"Ecuador","worldcity":0},"geometry":{"type":"Point","coordinates":[-78.502,-0.213]}},{"type":"Feature","properties":{"name":"San José","featurecla":"Admin-0 capital","pop_max":1284000,"megacity":1,"adm0name":"Costa Rica","worldcity":0},"geometry":{"type":"Point","coordinates":[-84.079,9.93]}},{"type":"Feature","properties":{"name":"San Salvador","featurecla":"Admin-0 capital","pop_max":1433000,"megacity":1,"adm0name":"El Salvador","worldcity":0},"geometry":{"type":"Point","coordinates":[-89.216,13.703]}},{"type":"Feature","properties":{"name":"Kingston","featurecla":"Admin-0 capital","pop_max":937700,"megacity":0,"adm0name":"Jamaica","worldcity":0},"geometry":{"type":"Point","coordinates":[-76.767,17.977]}},{"type":"Feature","properties":{"name":"N'Djamena","featurecla":"Admin-0 capital","pop_max":989000,"megacity":1,"adm0name":"Chad","worldcity":0},"geometry":{"type":"Point","coordinates":[15.047,12.115]}},{"type":"Feature","properties":{"name":"Malabo","featurecla":"Admin-0 capital","pop_max":155963,"megacity":0,"adm0name":"Equatorial Guinea","worldcity":0},"geometry":{"type":"Point","coordinates":[8.783,3.75]}},{"type":"Feature","properties":{"name":"Asmara","featurecla":"Admin-0 capital","pop_max":620802,"megacity":0,"adm0name":"Eritrea","worldcity":0},"geometry":{"type":"Point","coordinates":[38.933,15.333]}},{"type":"Feature","properties":{"name":"Zagreb","featurecla":"Admin-0 capital","pop_max":722526,"megacity":0,"adm0name":"Croatia","worldcity":0},"geometry":{"type":"Point","coordinates":[16,45.8]}},{"type":"Feature","properties":{"name":"Tallinn","featurecla":"Admin-0 capital","pop_max":394024,"megacity":0,"adm0name":"Estonia","worldcity":0},"geometry":{"type":"Point","coordinates":[24.728,59.434]}},{"type":"Feature","properties":{"name":"Lilongwe","featurecla":"Admin-0 capital","pop_max":646750,"megacity":0,"adm0name":"Malawi","worldcity":0},"geometry":{"type":"Point","coordinates":[33.783,-13.983]}},{"type":"Feature","properties":{"name":"Guatemala City","featurecla":"Admin-0 capital","pop_max":1024000,"megacity":1,"adm0name":"Guatemala","worldcity":0},"geometry":{"type":"Point","coordinates":[-90.529,14.623]}},{"type":"Feature","properties":{"name":"Libreville","featurecla":"Admin-0 capital","pop_max":578156,"megacity":0,"adm0name":"Gabon","worldcity":0},"geometry":{"type":"Point","coordinates":[9.458,0.385]}},{"type":"Feature","properties":{"name":"Suva","featurecla":"Admin-0 capital","pop_max":175399,"megacity":0,"adm0name":"Fiji","worldcity":0},"geometry":{"type":"Point","coordinates":[178.442,-18.133]}},{"type":"Feature","properties":{"name":"Valparaíso","featurecla":"Admin-0 capital alt","pop_max":854000,"megacity":1,"adm0name":"Chile","worldcity":0},"geometry":{"type":"Point","coordinates":[-71.617,-33.048]}},{"type":"Feature","properties":{"name":"Nouakchott","featurecla":"Admin-0 capital","pop_max":742144,"megacity":0,"adm0name":"Mauritania","worldcity":0},"geometry":{"type":"Point","coordinates":[-15.975,18.086]}},{"type":"Feature","properties":{"name":"Bamako","featurecla":"Admin-0 capital","pop_max":1494000,"megacity":1,"adm0name":"Mali","worldcity":0},"geometry":{"type":"Point","coordinates":[-8.002,12.652]}},{"type":"Feature","properties":{"name":"Beirut","featurecla":"Admin-0 capital","pop_max":1846000,"megacity":1,"adm0name":"Lebanon","worldcity":0},"geometry":{"type":"Point","coordinates":[35.508,33.874]}},{"type":"Feature","properties":{"name":"Tbilisi","featurecla":"Admin-0 capital","pop_max":1100000,"megacity":1,"adm0name":"Georgia","worldcity":0},"geometry":{"type":"Point","coordinates":[44.789,41.727]}},{"type":"Feature","properties":{"name":"Nur-Sultan","featurecla":"Admin-0 capital","pop_max":345604,"megacity":0,"adm0name":"Kazakhstan","worldcity":0},"geometry":{"type":"Point","coordinates":[71.428,51.181]}},{"type":"Feature","properties":{"name":"Vientiane","featurecla":"Admin-0 capital","pop_max":754000,"megacity":0,"adm0name":"Laos","worldcity":0},"geometry":{"type":"Point","coordinates":[102.6,17.967]}},{"type":"Feature","properties":{"name":"Brazzaville","featurecla":"Admin-0 capital","pop_max":1355000,"megacity":1,"adm0name":"Congo (Brazzaville)","worldcity":0},"geometry":{"type":"Point","coordinates":[15.283,-4.257]}},{"type":"Feature","properties":{"name":"Conakry","featurecla":"Admin-0 capital","pop_max":1494000,"megacity":1,"adm0name":"Guinea","worldcity":0},"geometry":{"type":"Point","coordinates":[-13.682,9.533]}},{"type":"Feature","properties":{"name":"Yamoussoukro","featurecla":"Admin-0 capital","pop_max":206499,"megacity":0,"adm0name":"Ivory Coast","worldcity":0},"geometry":{"type":"Point","coordinates":[-5.276,6.818]}},{"type":"Feature","properties":{"name":"Ottawa","featurecla":"Admin-0 capital","pop_max":1145000,"megacity":1,"adm0name":"Canada","worldcity":0},"geometry":{"type":"Point","coordinates":[-75.702,45.419]}},{"type":"Feature","properties":{"name":"Belgrade","featurecla":"Admin-0 capital","pop_max":1099000,"megacity":1,"adm0name":"Serbia","worldcity":0},"geometry":{"type":"Point","coordinates":[20.466,44.821]}},{"type":"Feature","properties":{"name":"Bandar Seri Begawan","featurecla":"Admin-0 capital","pop_max":296500,"megacity":0,"adm0name":"Brunei","worldcity":0},"geometry":{"type":"Point","coordinates":[114.933,4.883]}},{"type":"Feature","properties":{"name":"Sucre","featurecla":"Admin-0 capital","pop_max":224838,"megacity":0,"adm0name":"Bolivia","worldcity":0},"geometry":{"type":"Point","coordinates":[-65.26,-19.041]}},{"type":"Feature","properties":{"name":"Belmopan","featurecla":"Admin-0 capital","pop_max":15220,"megacity":0,"adm0name":"Belize","worldcity":0},"geometry":{"type":"Point","coordinates":[-88.767,17.252]}},{"type":"Feature","properties":{"name":"Bangui","featurecla":"Admin-0 capital","pop_max":831925,"megacity":0,"adm0name":"Central African Republic","worldcity":0},"geometry":{"type":"Point","coordinates":[18.558,4.367]}},{"type":"Feature","properties":{"name":"Yaoundé","featurecla":"Admin-0 capital","pop_max":1611000,"megacity":1,"adm0name":"Cameroon","worldcity":0},"geometry":{"type":"Point","coordinates":[11.515,3.869]}},{"type":"Feature","properties":{"name":"Tirana","featurecla":"Admin-0 capital","pop_max":895350,"megacity":0,"adm0name":"Albania","worldcity":0},"geometry":{"type":"Point","coordinates":[19.819,41.328]}},{"type":"Feature","properties":{"name":"Yerevan","featurecla":"Admin-0 capital","pop_max":1102000,"megacity":1,"adm0name":"Armenia","worldcity":0},"geometry":{"type":"Point","coordinates":[44.512,40.183]}},{"type":"Feature","properties":{"name":"Baku","featurecla":"Admin-0 capital","pop_max":2122300,"megacity":1,"adm0name":"Azerbaijan","worldcity":0},"geometry":{"type":"Point","coordinates":[49.86,40.397]}},{"type":"Feature","properties":{"name":"Phnom Penh","featurecla":"Admin-0 capital","pop_max":1466000,"megacity":1,"adm0name":"Cambodia","worldcity":0},"geometry":{"type":"Point","coordinates":[104.915,11.552]}},{"type":"Feature","properties":{"name":"La Paz","featurecla":"Admin-0 capital","pop_max":1590000,"megacity":1,"adm0name":"Bolivia","worldcity":0},"geometry":{"type":"Point","coordinates":[-68.152,-16.496]}},{"type":"Feature","properties":{"name":"Cotonou","featurecla":"Admin-0 capital","pop_max":762000,"megacity":1,"adm0name":"Benin","worldcity":0},"geometry":{"type":"Point","coordinates":[2.404,6.363]}},{"type":"Feature","properties":{"name":"Sofia","featurecla":"Admin-0 capital","pop_max":1185000,"megacity":1,"adm0name":"Bulgaria","worldcity":0},"geometry":{"type":"Point","coordinates":[23.315,42.685]}},{"type":"Feature","properties":{"name":"Minsk","featurecla":"Admin-0 capital","pop_max":1805000,"megacity":1,"adm0name":"Belarus","worldcity":0},"geometry":{"type":"Point","coordinates":[27.565,53.902]}},{"type":"Feature","properties":{"name":"Thimphu","featurecla":"Admin-0 capital","pop_max":98676,"megacity":0,"adm0name":"Bhutan","worldcity":0},"geometry":{"type":"Point","coordinates":[89.639,27.473]}},{"type":"Feature","properties":{"name":"Gaborone","featurecla":"Admin-0 capital","pop_max":208411,"megacity":0,"adm0name":"Botswana","worldcity":0},"geometry":{"type":"Point","coordinates":[25.912,-24.646]}},{"type":"Feature","properties":{"name":"Canberra","featurecla":"Admin-0 capital","pop_max":327700,"megacity":0,"adm0name":"Australia","worldcity":0},"geometry":{"type":"Point","coordinates":[149.129,-35.283]}},{"type":"Feature","properties":{"name":"Ouagadougou","featurecla":"Admin-0 capital","pop_max":1149000,"megacity":1,"adm0name":"Burkina Faso","worldcity":0},"geometry":{"type":"Point","coordinates":[-1.527,12.372]}},{"type":"Feature","properties":{"name":"Sarajevo","featurecla":"Admin-0 capital","pop_max":696731,"megacity":0,"adm0name":"Bosnia and Herzegovina","worldcity":0},"geometry":{"type":"Point","coordinates":[18.383,43.85]}},{"type":"Feature","properties":{"name":"Naypyidaw","featurecla":"Admin-0 capital","pop_max":930000,"megacity":1,"adm0name":"Myanmar","worldcity":0},"geometry":{"type":"Point","coordinates":[96.117,19.769]}},{"type":"Feature","properties":{"name":"Nuku'alofa","featurecla":"Admin-0 capital","pop_max":42620,"megacity":0,"adm0name":"Tonga","worldcity":0},"geometry":{"type":"Point","coordinates":[-175.221,-21.139]}},{"type":"Feature","properties":{"name":"Hargeisa","featurecla":"Admin-0 capital","pop_max":477876,"megacity":0,"adm0name":"Somaliland","worldcity":0},"geometry":{"type":"Point","coordinates":[44.065,9.56]}},{"type":"Feature","properties":{"name":"Victoria","featurecla":"Admin-0 capital","pop_max":33576,"megacity":0,"adm0name":"Seychelles","worldcity":0},"geometry":{"type":"Point","coordinates":[55.45,-4.617]}},{"type":"Feature","properties":{"name":"São Tomé","featurecla":"Admin-0 capital","pop_max":88219,"megacity":0,"adm0name":"Sao Tome and Principe","worldcity":0},"geometry":{"type":"Point","coordinates":[6.73,0.337]}},{"type":"Feature","properties":{"name":"Apia","featurecla":"Admin-0 capital","pop_max":61916,"megacity":0,"adm0name":"Samoa","worldcity":0},"geometry":{"type":"Point","coordinates":[-171.769,-13.836]}},{"type":"Feature","properties":{"name":"Valletta","featurecla":"Admin-0 capital","pop_max":368250,"megacity":0,"adm0name":"Malta","worldcity":0},"geometry":{"type":"Point","coordinates":[14.515,35.9]}},{"type":"Feature","properties":{"name":"Malé","featurecla":"Admin-0 capital","pop_max":112927,"megacity":0,"adm0name":"Maldives","worldcity":0},"geometry":{"type":"Point","coordinates":[73.509,4.172]}},{"type":"Feature","properties":{"name":"Jerusalem","featurecla":"Admin-0 capital","pop_max":1029300,"megacity":0,"adm0name":"Israel","worldcity":0},"geometry":{"type":"Point","coordinates":[35.207,31.778]}},{"type":"Feature","properties":{"name":"Praia","featurecla":"Admin-0 capital","pop_max":113364,"megacity":0,"adm0name":"Cape Verde","worldcity":0},"geometry":{"type":"Point","coordinates":[-23.517,14.917]}},{"type":"Feature","properties":{"name":"Nassau","featurecla":"Admin-0 capital","pop_max":227940,"megacity":0,"adm0name":"The Bahamas","worldcity":0},"geometry":{"type":"Point","coordinates":[-77.35,25.083]}},{"type":"Feature","properties":{"name":"Nicosia","featurecla":"Admin-0 capital","pop_max":224300,"megacity":0,"adm0name":"Cyprus","worldcity":0},"geometry":{"type":"Point","coordinates":[33.367,35.167]}},{"type":"Feature","properties":{"name":"Wellington","featurecla":"Admin-0 capital","pop_max":393400,"megacity":0,"adm0name":"New Zealand","worldcity":0},"geometry":{"type":"Point","coordinates":[174.777,-41.292]}},{"type":"Feature","properties":{"name":"Hanoi","featurecla":"Admin-0 capital","pop_max":4378000,"megacity":1,"adm0name":"Vietnam","worldcity":0},"geometry":{"type":"Point","coordinates":[105.848,21.035]}},{"type":"Feature","properties":{"name":"Ankara","featurecla":"Admin-0 capital","pop_max":3716000,"megacity":1,"adm0name":"Turkey","worldcity":0},"geometry":{"type":"Point","coordinates":[32.862,39.929]}},{"type":"Feature","properties":{"name":"Budapest","featurecla":"Admin-0 capital","pop_max":1679000,"megacity":1,"adm0name":"Hungary","worldcity":1},"geometry":{"type":"Point","coordinates":[19.081,47.502]}},{"type":"Feature","properties":{"name":"Sanaa","featurecla":"Admin-0 capital","pop_max":2008000,"megacity":1,"adm0name":"Yemen","worldcity":0},"geometry":{"type":"Point","coordinates":[44.205,15.357]}},{"type":"Feature","properties":{"name":"Bucharest","featurecla":"Admin-0 capital","pop_max":1942000,"megacity":1,"adm0name":"Romania","worldcity":1},"geometry":{"type":"Point","coordinates":[26.098,44.435]}},{"type":"Feature","properties":{"name":"Damascus","featurecla":"Admin-0 capital","pop_max":2466000,"megacity":1,"adm0name":"Syria","worldcity":0},"geometry":{"type":"Point","coordinates":[36.298,33.502]}},{"type":"Feature","properties":{"name":"Lisbon","featurecla":"Admin-0 capital","pop_max":2812000,"megacity":1,"adm0name":"Portugal","worldcity":1},"geometry":{"type":"Point","coordinates":[-9.147,38.725]}},{"type":"Feature","properties":{"name":"Khartoum","featurecla":"Admin-0 capital","pop_max":4754000,"megacity":1,"adm0name":"Sudan","worldcity":0},"geometry":{"type":"Point","coordinates":[32.532,15.59]}},{"type":"Feature","properties":{"name":"Oslo","featurecla":"Admin-0 capital","pop_max":835000,"megacity":1,"adm0name":"Norway","worldcity":1},"geometry":{"type":"Point","coordinates":[10.748,59.919]}},{"type":"Feature","properties":{"name":"Warsaw","featurecla":"Admin-0 capital","pop_max":1707000,"megacity":1,"adm0name":"Poland","worldcity":1},"geometry":{"type":"Point","coordinates":[21.005,52.231]}},{"type":"Feature","properties":{"name":"Pyongyang","featurecla":"Admin-0 capital","pop_max":3300000,"megacity":1,"adm0name":"North Korea","worldcity":0},"geometry":{"type":"Point","coordinates":[125.753,39.021]}},{"type":"Feature","properties":{"name":"Dar es Salaam","featurecla":"Admin-0 capital","pop_max":2930000,"megacity":1,"adm0name":"Tanzania","worldcity":0},"geometry":{"type":"Point","coordinates":[39.266,-6.798]}},{"type":"Feature","properties":{"name":"Dublin","featurecla":"Admin-0 capital","pop_max":1059000,"megacity":1,"adm0name":"Ireland","worldcity":1},"geometry":{"type":"Point","coordinates":[-6.257,53.347]}},{"type":"Feature","properties":{"name":"Monrovia","featurecla":"Admin-0 capital","pop_max":1041000,"megacity":1,"adm0name":"Liberia","worldcity":0},"geometry":{"type":"Point","coordinates":[-10.8,6.315]}},{"type":"Feature","properties":{"name":"Kuala Lumpur","featurecla":"Admin-0 capital","pop_max":1448000,"megacity":1,"adm0name":"Malaysia","worldcity":1},"geometry":{"type":"Point","coordinates":[101.689,3.14]}},{"type":"Feature","properties":{"name":"Havana","featurecla":"Admin-0 capital","pop_max":2174000,"megacity":1,"adm0name":"Cuba","worldcity":0},"geometry":{"type":"Point","coordinates":[-82.366,23.134]}},{"type":"Feature","properties":{"name":"Prague","featurecla":"Admin-0 capital","pop_max":1162000,"megacity":1,"adm0name":"Czechia","worldcity":1},"geometry":{"type":"Point","coordinates":[14.423,50.087]}},{"type":"Feature","properties":{"name":"Kuwait City","featurecla":"Admin-0 capital","pop_max":2063000,"megacity":1,"adm0name":"Kuwait","worldcity":0},"geometry":{"type":"Point","coordinates":[47.976,29.372]}},{"type":"Feature","properties":{"name":"Santo Domingo","featurecla":"Admin-0 capital","pop_max":2154000,"megacity":1,"adm0name":"Dominican Republic","worldcity":0},"geometry":{"type":"Point","coordinates":[-69.93,18.471]}},{"type":"Feature","properties":{"name":"Accra","featurecla":"Admin-0 capital","pop_max":2121000,"megacity":1,"adm0name":"Ghana","worldcity":0},"geometry":{"type":"Point","coordinates":[-0.219,5.552]}},{"type":"Feature","properties":{"name":"Tripoli","featurecla":"Admin-0 capital","pop_max":2189000,"megacity":1,"adm0name":"Libya","worldcity":0},"geometry":{"type":"Point","coordinates":[13.18,32.892]}},{"type":"Feature","properties":{"name":"Tel Aviv","featurecla":"Admin-0 capital alt","pop_max":3112000,"megacity":1,"adm0name":"Israel","worldcity":0},"geometry":{"type":"Point","coordinates":[34.768,32.082]}},{"type":"Feature","properties":{"name":"Helsinki","featurecla":"Admin-0 capital","pop_max":1115000,"megacity":1,"adm0name":"Finland","worldcity":1},"geometry":{"type":"Point","coordinates":[24.932,60.164]}},{"type":"Feature","properties":{"name":"København","featurecla":"Admin-0 capital","pop_max":1085000,"megacity":1,"adm0name":"Denmark","worldcity":1},"geometry":{"type":"Point","coordinates":[12.562,55.681]}},{"type":"Feature","properties":{"name":"Abidjan","featurecla":"Admin-0 capital","pop_max":3802000,"megacity":1,"adm0name":"Ivory Coast","worldcity":0},"geometry":{"type":"Point","coordinates":[-4.02,5.323]}},{"type":"Feature","properties":{"name":"Brasília","featurecla":"Admin-0 capital","pop_max":3716996,"megacity":1,"adm0name":"Brazil","worldcity":0},"geometry":{"type":"Point","coordinates":[-47.918,-15.781]}},{"type":"Feature","properties":{"name":"Brussels","featurecla":"Admin-0 capital","pop_max":1743000,"megacity":1,"adm0name":"Belgium","worldcity":1},"geometry":{"type":"Point","coordinates":[4.331,50.835]}},{"type":"Feature","properties":{"name":"Dhaka","featurecla":"Admin-0 capital","pop_max":12797394,"megacity":1,"adm0name":"Bangladesh","worldcity":0},"geometry":{"type":"Point","coordinates":[90.407,23.725]}},{"type":"Feature","properties":{"name":"Luanda","featurecla":"Admin-0 capital","pop_max":5172900,"megacity":1,"adm0name":"Angola","worldcity":0},"geometry":{"type":"Point","coordinates":[13.232,-8.836]}},{"type":"Feature","properties":{"name":"Algiers","featurecla":"Admin-0 capital","pop_max":3354000,"megacity":1,"adm0name":"Algeria","worldcity":0},"geometry":{"type":"Point","coordinates":[3.049,36.765]}},{"type":"Feature","properties":{"name":"Yangon","featurecla":"Admin-0 capital","pop_max":4088000,"megacity":1,"adm0name":"Myanmar","worldcity":0},"geometry":{"type":"Point","coordinates":[96.165,16.785]}},{"type":"Feature","properties":{"name":"San Francisco","featurecla":"Populated place","pop_max":3450000,"megacity":1,"adm0name":"United States of America","worldcity":1},"geometry":{"type":"Point","coordinates":[-122.4,37.784]}},{"type":"Feature","properties":{"name":"Denver","featurecla":"Admin-1 capital","pop_max":2313000,"megacity":1,"adm0name":"United States of America","worldcity":0},"geometry":{"type":"Point","coordinates":[-104.986,39.741]}},{"type":"Feature","properties":{"name":"Houston","featurecla":"Populated place","pop_max":4459000,"megacity":1,"adm0name":"United States of America","worldcity":0},"geometry":{"type":"Point","coordinates":[-95.348,29.741]}},{"type":"Feature","properties":{"name":"Miami","featurecla":"Populated place","pop_max":5585000,"megacity":1,"adm0name":"United States of America","worldcity":1},"geometry":{"type":"Point","coordinates":[-80.226,25.79]}},{"type":"Feature","properties":{"name":"Atlanta","featurecla":"Admin-1 capital","pop_max":4506000,"megacity":1,"adm0name":"United States of America","worldcity":1},"geometry":{"type":"Point","coordinates":[-84.368,33.739]}},{"type":"Feature","properties":{"name":"Chicago","featurecla":"Populated place","pop_max":8990000,"megacity":1,"adm0name":"United States of America","worldcity":1},"geometry":{"type":"Point","coordinates":[-87.635,41.848]}},{"type":"Feature","properties":{"name":"Caracas","featurecla":"Admin-0 capital","pop_max":2985000,"megacity":1,"adm0name":"Venezuela","worldcity":1},"geometry":{"type":"Point","coordinates":[-66.919,10.503]}},{"type":"Feature","properties":{"name":"Kyiv","featurecla":"Admin-0 capital","pop_max":2709000,"megacity":1,"adm0name":"Ukraine","worldcity":0},"geometry":{"type":"Point","coordinates":[30.515,50.435]}},{"type":"Feature","properties":{"name":"Dubai","featurecla":"Admin-1 capital","pop_max":1379000,"megacity":1,"adm0name":"United Arab Emirates","worldcity":1},"geometry":{"type":"Point","coordinates":[55.287,25.215]}},{"type":"Feature","properties":{"name":"Tashkent","featurecla":"Admin-0 capital","pop_max":2184000,"megacity":1,"adm0name":"Uzbekistan","worldcity":0},"geometry":{"type":"Point","coordinates":[69.269,41.304]}},{"type":"Feature","properties":{"name":"Madrid","featurecla":"Admin-0 capital","pop_max":5567000,"megacity":1,"adm0name":"Spain","worldcity":1},"geometry":{"type":"Point","coordinates":[-3.685,40.402]}},{"type":"Feature","properties":{"name":"Geneva","featurecla":"Admin-1 capital","pop_max":1240000,"megacity":0,"adm0name":"Switzerland","worldcity":1},"geometry":{"type":"Point","coordinates":[6.14,46.21]}},{"type":"Feature","properties":{"name":"Stockholm","featurecla":"Admin-0 capital","pop_max":1264000,"megacity":1,"adm0name":"Sweden","worldcity":1},"geometry":{"type":"Point","coordinates":[18.066,59.324]}},{"type":"Feature","properties":{"name":"Bangkok","featurecla":"Admin-0 capital","pop_max":6704000,"megacity":1,"adm0name":"Thailand","worldcity":1},"geometry":{"type":"Point","coordinates":[100.515,13.752]}},{"type":"Feature","properties":{"name":"Lima","featurecla":"Admin-0 capital","pop_max":8012000,"megacity":1,"adm0name":"Peru","worldcity":0},"geometry":{"type":"Point","coordinates":[-77.052,-12.046]}},{"type":"Feature","properties":{"name":"Dakar","featurecla":"Admin-0 capital","pop_max":2604000,"megacity":1,"adm0name":"Senegal","worldcity":0},"geometry":{"type":"Point","coordinates":[-17.475,14.718]}},{"type":"Feature","properties":{"name":"Johannesburg","featurecla":"Admin-0 capital","pop_max":3435000,"megacity":1,"adm0name":"South Africa","worldcity":1},"geometry":{"type":"Point","coordinates":[28.028,-26.168]}},{"type":"Feature","properties":{"name":"Amsterdam","featurecla":"Admin-0 capital","pop_max":1031000,"megacity":1,"adm0name":"Netherlands","worldcity":1},"geometry":{"type":"Point","coordinates":[4.915,52.352]}},{"type":"Feature","properties":{"name":"Casablanca","featurecla":"Admin-1 capital","pop_max":3181000,"megacity":1,"adm0name":"Morocco","worldcity":1},"geometry":{"type":"Point","coordinates":[-7.618,33.602]}},{"type":"Feature","properties":{"name":"Seoul","featurecla":"Admin-0 capital","pop_max":9796000,"megacity":1,"adm0name":"South Korea","worldcity":1},"geometry":{"type":"Point","coordinates":[126.998,37.568]}},{"type":"Feature","properties":{"name":"Manila","featurecla":"Admin-0 capital","pop_max":11100000,"megacity":1,"adm0name":"Philippines","worldcity":1},"geometry":{"type":"Point","coordinates":[120.98,14.606]}},{"type":"Feature","properties":{"name":"Monterrey","featurecla":"Admin-1 capital","pop_max":3712000,"megacity":1,"adm0name":"Mexico","worldcity":0},"geometry":{"type":"Point","coordinates":[-100.332,25.672]}},{"type":"Feature","properties":{"name":"Berlin","featurecla":"Admin-0 capital","pop_max":3406000,"megacity":1,"adm0name":"Germany","worldcity":1},"geometry":{"type":"Point","coordinates":[13.4,52.524]}},{"type":"Feature","properties":{"name":"Ürümqi","featurecla":"Admin-1 capital","pop_max":3575000,"megacity":1,"adm0name":"China","worldcity":0},"geometry":{"type":"Point","coordinates":[87.573,43.807]}},{"type":"Feature","properties":{"name":"Chengdu","featurecla":"Admin-1 capital","pop_max":4123000,"megacity":1,"adm0name":"China","worldcity":0},"geometry":{"type":"Point","coordinates":[104.068,30.672]}},{"type":"Feature","properties":{"name":"Ōsaka","featurecla":"Admin-1 region capital","pop_max":11294000,"megacity":1,"adm0name":"Japan","worldcity":1},"geometry":{"type":"Point","coordinates":[135.504,34.691]}},{"type":"Feature","properties":{"name":"Kinshasa","featurecla":"Admin-0 capital","pop_max":7843000,"megacity":1,"adm0name":"Congo (Kinshasa)","worldcity":0},"geometry":{"type":"Point","coordinates":[15.313,-4.328]}},{"type":"Feature","properties":{"name":"New Delhi","featurecla":"Admin-0 capital","pop_max":317797,"megacity":0,"adm0name":"India","worldcity":1},"geometry":{"type":"Point","coordinates":[77.2,28.6]}},{"type":"Feature","properties":{"name":"Bengaluru","featurecla":"Admin-1 capital","pop_max":6787000,"megacity":1,"adm0name":"India","worldcity":0},"geometry":{"type":"Point","coordinates":[77.558,12.972]}},{"type":"Feature","properties":{"name":"Athens","featurecla":"Admin-0 capital","pop_max":3242000,"megacity":1,"adm0name":"Greece","worldcity":1},"geometry":{"type":"Point","coordinates":[23.731,37.985]}},{"type":"Feature","properties":{"name":"Baghdad","featurecla":"Admin-0 capital","pop_max":5054000,"megacity":1,"adm0name":"Iraq","worldcity":0},"geometry":{"type":"Point","coordinates":[44.392,33.341]}},{"type":"Feature","properties":{"name":"Addis Ababa","featurecla":"Admin-0 capital","pop_max":3100000,"megacity":1,"adm0name":"Ethiopia","worldcity":0},"geometry":{"type":"Point","coordinates":[38.698,9.035]}},{"type":"Feature","properties":{"name":"Tehran","featurecla":"Admin-0 capital","pop_max":7873000,"megacity":1,"adm0name":"Iran","worldcity":0},"geometry":{"type":"Point","coordinates":[51.422,35.674]}},{"type":"Feature","properties":{"name":"Vancouver","featurecla":"Populated place","pop_max":2313328,"megacity":1,"adm0name":"Canada","worldcity":0},"geometry":{"type":"Point","coordinates":[-123.124,49.275]}},{"type":"Feature","properties":{"name":"Toronto","featurecla":"Admin-1 capital","pop_max":5213000,"megacity":1,"adm0name":"Canada","worldcity":1},"geometry":{"type":"Point","coordinates":[-79.389,43.665]}},{"type":"Feature","properties":{"name":"Buenos Aires","featurecla":"Admin-0 capital","pop_max":12795000,"megacity":1,"adm0name":"Argentina","worldcity":1},"geometry":{"type":"Point","coordinates":[-58.433,-34.611]}},{"type":"Feature","properties":{"name":"Kabul","featurecla":"Admin-0 capital","pop_max":3277000,"megacity":1,"adm0name":"Afghanistan","worldcity":0},"geometry":{"type":"Point","coordinates":[69.181,34.519]}},{"type":"Feature","properties":{"name":"Vienna","featurecla":"Admin-0 capital","pop_max":2400000,"megacity":1,"adm0name":"Austria","worldcity":1},"geometry":{"type":"Point","coordinates":[16.365,48.202]}},{"type":"Feature","properties":{"name":"Melbourne","featurecla":"Admin-1 capital","pop_max":4170000,"megacity":1,"adm0name":"Australia","worldcity":1},"geometry":{"type":"Point","coordinates":[144.973,-37.818]}},{"type":"Feature","properties":{"name":"Taipei","featurecla":"Admin-0 capital","pop_max":6900273,"megacity":1,"adm0name":"Taiwan","worldcity":1},"geometry":{"type":"Point","coordinates":[121.568,25.036]}},{"type":"Feature","properties":{"name":"Auckland","featurecla":"Admin-1 capital","pop_max":1377200,"megacity":1,"adm0name":"New Zealand","worldcity":1},"geometry":{"type":"Point","coordinates":[174.763,-36.848]}},{"type":"Feature","properties":{"name":"Los Angeles","featurecla":"Populated place","pop_max":12500000,"megacity":1,"adm0name":"United States of America","worldcity":1},"geometry":{"type":"Point","coordinates":[-118.232,34.049]}},{"type":"Feature","properties":{"name":"Washington,  D.C.","featurecla":"Admin-0 capital","pop_max":4338000,"megacity":1,"adm0name":"United States of America","worldcity":1},"geometry":{"type":"Point","coordinates":[-77.011,38.901]}},{"type":"Feature","properties":{"name":"New York","featurecla":"Populated place","pop_max":19040000,"megacity":1,"adm0name":"United States of America","worldcity":1},"geometry":{"type":"Point","coordinates":[-73.996,40.722]}},{"type":"Feature","properties":{"name":"London","featurecla":"Admin-0 capital","pop_max":8567000,"megacity":1,"adm0name":"United Kingdom","worldcity":1},"geometry":{"type":"Point","coordinates":[-0.119,51.502]}},{"type":"Feature","properties":{"name":"Istanbul","featurecla":"Admin-1 capital","pop_max":10061000,"megacity":1,"adm0name":"Turkey","worldcity":1},"geometry":{"type":"Point","coordinates":[28.974,41.018]}},{"type":"Feature","properties":{"name":"Riyadh","featurecla":"Admin-0 capital","pop_max":4465000,"megacity":1,"adm0name":"Saudi Arabia","worldcity":1},"geometry":{"type":"Point","coordinates":[46.72,24.634]}},{"type":"Feature","properties":{"name":"Cape Town","featurecla":"Admin-0 capital","pop_max":3215000,"megacity":1,"adm0name":"South Africa","worldcity":1},"geometry":{"type":"Point","coordinates":[18.433,-33.918]}},{"type":"Feature","properties":{"name":"Moscow","featurecla":"Admin-0 capital","pop_max":10452000,"megacity":1,"adm0name":"Russia","worldcity":1},"geometry":{"type":"Point","coordinates":[37.614,55.754]}},{"type":"Feature","properties":{"name":"Mexico City","featurecla":"Admin-0 capital","pop_max":19028000,"megacity":1,"adm0name":"Mexico","worldcity":1},"geometry":{"type":"Point","coordinates":[-99.133,19.444]}},{"type":"Feature","properties":{"name":"Lagos","featurecla":"Admin-0 capital alt","pop_max":9466000,"megacity":1,"adm0name":"Nigeria","worldcity":1},"geometry":{"type":"Point","coordinates":[3.39,6.445]}},{"type":"Feature","properties":{"name":"Rome","featurecla":"Admin-0 capital","pop_max":3339000,"megacity":1,"adm0name":"Italy","worldcity":1},"geometry":{"type":"Point","coordinates":[12.481,41.898]}},{"type":"Feature","properties":{"name":"Beijing","featurecla":"Admin-0 capital","pop_max":11106000,"megacity":1,"adm0name":"China","worldcity":1},"geometry":{"type":"Point","coordinates":[116.394,39.902]}},{"type":"Feature","properties":{"name":"Nairobi","featurecla":"Admin-0 capital","pop_max":3010000,"megacity":1,"adm0name":"Kenya","worldcity":1},"geometry":{"type":"Point","coordinates":[36.815,-1.281]}},{"type":"Feature","properties":{"name":"Jakarta","featurecla":"Admin-0 capital","pop_max":9125000,"megacity":1,"adm0name":"Indonesia","worldcity":1},"geometry":{"type":"Point","coordinates":[106.827,-6.172]}},{"type":"Feature","properties":{"name":"Bogota","featurecla":"Admin-0 capital","pop_max":7772000,"megacity":1,"adm0name":"Colombia","worldcity":1},"geometry":{"type":"Point","coordinates":[-74.085,4.598]}},{"type":"Feature","properties":{"name":"Cairo","featurecla":"Admin-0 capital","pop_max":11893000,"megacity":1,"adm0name":"Egypt","worldcity":1},"geometry":{"type":"Point","coordinates":[31.248,30.052]}},{"type":"Feature","properties":{"name":"Shanghai","featurecla":"Admin-1 capital","pop_max":14987000,"megacity":1,"adm0name":"China","worldcity":1},"geometry":{"type":"Point","coordinates":[121.435,31.218]}},{"type":"Feature","properties":{"name":"Tokyo","featurecla":"Admin-0 capital","pop_max":35676000,"megacity":1,"adm0name":"Japan","worldcity":1},"geometry":{"type":"Point","coordinates":[139.749,35.687]}},{"type":"Feature","properties":{"name":"Mumbai","featurecla":"Admin-1 capital","pop_max":18978000,"megacity":1,"adm0name":"India","worldcity":1},"geometry":{"type":"Point","coordinates":[72.876,19.068]}},{"type":"Feature","properties":{"name":"Paris","featurecla":"Admin-0 capital","pop_max":9904000,"megacity":1,"adm0name":"France","worldcity":1},"geometry":{"type":"Point","coordinates":[2.353,48.858]}},{"type":"Feature","properties":{"name":"Santiago","featurecla":"Admin-0 capital","pop_max":5720000,"megacity":1,"adm0name":"Chile","worldcity":1},"geometry":{"type":"Point","coordinates":[-70.651,-33.44]}},{"type":"Feature","properties":{"name":"Kolkata","featurecla":"Admin-1 capital","pop_max":14787000,"megacity":1,"adm0name":"India","worldcity":0},"geometry":{"type":"Point","coordinates":[88.369,22.57]}},{"type":"Feature","properties":{"name":"Rio de Janeiro","featurecla":"Admin-1 capital","pop_max":11748000,"megacity":1,"adm0name":"Brazil","worldcity":1},"geometry":{"type":"Point","coordinates":[-43.212,-22.907]}},{"type":"Feature","properties":{"name":"São Paulo","featurecla":"Admin-1 capital","pop_max":18845000,"megacity":1,"adm0name":"Brazil","worldcity":1},"geometry":{"type":"Point","coordinates":[-46.627,-23.557]}},{"type":"Feature","properties":{"name":"Sydney","featurecla":"Admin-1 capital","pop_max":4630000,"megacity":1,"adm0name":"Australia","worldcity":1},"geometry":{"type":"Point","coordinates":[151.213,-33.871]}},{"type":"Feature","properties":{"name":"Singapore","featurecla":"Admin-0 capital","pop_max":5183700,"megacity":1,"adm0name":"Singapore","worldcity":1},"geometry":{"type":"Point","coordinates":[103.854,1.295]}},{"type":"Feature","properties":{"name":"Hong Kong","featurecla":"Admin-0 region capital","pop_max":7206000,"megacity":1,"adm0name":"Hong Kong S.A.R.","worldcity":1},"geometry":{"type":"Point","coordinates":[114.183,22.307]}}]}